{"type": "FeatureCollection", "features": [ {"type": "Feature", "properties": {"norad_id": 43107, "name": "BEIDOU-3 M7 (C27)", "group": "gnss", "lat": 53.047322726230576, "lon": 20.22027988653699, "alt_km": 21514.388677404288, "timestamp": "2025-12-15T07:02:37.861675+00:00", "meta": {"OBJECT_NAME": "BEIDOU-3 M7 (C27)", "OBJECT_ID": "2018-003A", "EPOCH": "2025-12-13T13:33:25.741728", "MEAN_MOTION": 1.86232202, "ECCENTRICITY": 0.00026561, "INCLINATION": 54.4958, "RA_OF_ASC_NODE": 308.7854, "ARG_OF_PERICENTER": 70.3198, "MEAN_ANOMALY": 289.6984, "EPHEMERIS_TYPE": 0, "CLASSIFICATION_TYPE": "U", "NORAD_CAT_ID": 43107, "ELEMENT_SET_NO": 999, "REV_AT_EPOCH": 5389, "BSTAR": 0, "MEAN_MOTION_DOT": -9.8e-07, "MEAN_MOTION_DDOT": 0}, "tle": {"line1": "1 43107U 18003A   25347.56488127 -.00000098  00000+0  00000+0 0  9995", "line2": "2 43107  54.4958 308.7854 0002656  70.3198 289.6984  1.86232202 53891"}}, "geometry": {"type": "Point", "coordinates": [20.22027988653699, 53.047322726230576]}}, {"type": "Feature", "properties": {"norad_id": 43108, "name": "BEIDOU-3 M8 (C28)", "group": "gnss", "lat": 47.101996569626266, "lon": 78.51087188596448, "alt_km": 21534.88273991674, "timestamp": "2025-12-15T07:02:37.861687+00:00", "meta": {"OBJECT_NAME": "BEIDOU-3 M8 (C28)", "OBJECT_ID": "2018-003B", "EPOCH": "2025-12-11T21:34:27.940800", "MEAN_MOTION": 1.86230629, "ECCENTRICITY": 0.00047751, "INCLINATION": 54.4899, "RA_OF_ASC_NODE": 308.8263, "ARG_OF_PERICENTER": 274.4182, "MEAN_ANOMALY": 85.5183, "EPHEMERIS_TYPE": 0, "CLASSIFICATION_TYPE": "U", "NORAD_CAT_ID": 43108, "ELEMENT_SET_NO": 999, "REV_AT_EPOCH": 5387, "BSTAR": 0, "MEAN_MOTION_DOT": -9e-07, "MEAN_MOTION_DDOT": 0}, "tle": {"line1": "1 43108U 18003B   25345.89893450 -.00000090  00000+0  00000+0 0  9991", "line2": "2 43108  54.4899 308.8263 0004775 274.4182  85.5183  1.86230629 53878"}}, "geometry": {"type": "Point", "coordinates": [78.51087188596448, 47.101996569626266]}}, {"type": "Feature", "properties": {"norad_id": 43207, "name": "BEIDOU-3 M4 (C22)", "group": "gnss", "lat": 0.2990729087309921, "lon": -110.97095900471972, "alt_km": 21539.723069565473, "timestamp": "2025-12-15T07:02:37.861698+00:00", "meta": {"OBJECT_NAME": "BEIDOU-3 M4 (C22)", "OBJECT_ID": "2018-018A", "EPOCH": "2025-12-13T09:57:17.275392", "MEAN_MOTION": 1.86231174, "ECCENTRICITY": 0.00041262, "INCLINATION": 56.4868, "RA_OF_ASC_NODE": 69.2813, "ARG_OF_PERICENTER": 7.8207, "MEAN_ANOMALY": 352.2039, "EPHEMERIS_TYPE": 0, "CLASSIFICATION_TYPE": "U", "NORAD_CAT_ID": 43207, "ELEMENT_SET_NO": 999, "REV_AT_EPOCH": 5328, "BSTAR": 0, "MEAN_MOTION_DOT": -7.8e-07, "MEAN_MOTION_DDOT": 0}, "tle": {"line1": "1 43207U 18018A   25347.41478328 -.00000078  00000+0  00000+0 0  9996", "line2": "2 43207  56.4868  69.2813 0004126   7.8207 352.2039  1.86231174 53286"}}, "geometry": {"type": "Point", "coordinates": [-110.97095900471972, 0.2990729087309921]}}, {"type": "Feature", "properties": {"norad_id": 43208, "name": "BEIDOU-3 M3 (C21)", "group": "gnss", "lat": 36.15396430319125, "lon": -139.679454337279, "alt_km": 21541.94197110937, "timestamp": "2025-12-15T07:02:37.861709+00:00", "meta": {"OBJECT_NAME": "BEIDOU-3 M3 (C21)", "OBJECT_ID": "2018-018B", "EPOCH": "2025-12-10T19:07:00.567840", "MEAN_MOTION": 1.8623124, "ECCENTRICITY": 0.0006564, "INCLINATION": 56.484, "RA_OF_ASC_NODE": 69.3721, "ARG_OF_PERICENTER": 317.0111, "MEAN_ANOMALY": 42.9593, "EPHEMERIS_TYPE": 0, "CLASSIFICATION_TYPE": "U", "NORAD_CAT_ID": 43208, "ELEMENT_SET_NO": 999, "REV_AT_EPOCH": 5323, "BSTAR": 0, "MEAN_MOTION_DOT": -5.7e-07, "MEAN_MOTION_DDOT": 0}, "tle": {"line1": "1 43208U 18018B   25344.79653435 -.00000057  00000+0  00000+0 0  9996", "line2": "2 43208  56.4840  69.3721 0006564 317.0111  42.9593  1.86231240 53231"}}, "geometry": {"type": "Point", "coordinates": [-139.679454337279, 36.15396430319125]}}, {"type": "Feature", "properties": {"norad_id": 43245, "name": "BEIDOU-3 M9 (C29)", "group": "gnss", "lat": -8.092257418176487, "lon": -59.49280959506047, "alt_km": 21527.922811904853, "timestamp": "2025-12-15T07:02:37.861722+00:00", "meta": {"OBJECT_NAME": "BEIDOU-3 M9 (C29)", "OBJECT_ID": "2018-029A", "EPOCH": "2025-12-13T16:44:23.331264", "MEAN_MOTION": 1.86228229, "ECCENTRICITY": 0.0001559, "INCLINATION": 54.3645, "RA_OF_ASC_NODE": 306.4338, "ARG_OF_PERICENTER": 282.9572, "MEAN_ANOMALY": 77.0146, "EPHEMERIS_TYPE": 0, "CLASSIFICATION_TYPE": "U", "NORAD_CAT_ID": 43245, "ELEMENT_SET_NO": 999, "REV_AT_EPOCH": 5244, "BSTAR": 0, "MEAN_MOTION_DOT": -9.8e-07, "MEAN_MOTION_DDOT": 0}, "tle": {"line1": "1 43245U 18029A   25347.69749226 -.00000098  00000+0  00000+0 0  9990", "line2": "2 43245  54.3645 306.4338 0001559 282.9572  77.0146  1.86228229 52449"}}, "geometry": {"type": "Point", "coordinates": [-59.49280959506047, -8.092257418176487]}}, {"type": "Feature", "properties": {"norad_id": 43246, "name": "BEIDOU-3 M10 (C30)", "group": "gnss", "lat": 26.629531600187136, "lon": -32.54773827942601, "alt_km": 21515.414077745307, "timestamp": "2025-12-15T07:02:37.861734+00:00", "meta": {"OBJECT_NAME": "BEIDOU-3 M10 (C30)", "OBJECT_ID": "2018-029B", "EPOCH": "2025-12-13T15:11:09.100608", "MEAN_MOTION": 1.86228859, "ECCENTRICITY": 0.00040776, "INCLINATION": 54.3622, "RA_OF_ASC_NODE": 306.4632, "ARG_OF_PERICENTER": 1.1886, "MEAN_ANOMALY": 358.8016, "EPHEMERIS_TYPE": 0, "CLASSIFICATION_TYPE": "U", "NORAD_CAT_ID": 43246, "ELEMENT_SET_NO": 999, "REV_AT_EPOCH": 5242, "BSTAR": 0, "MEAN_MOTION_DOT": -9.8e-07, "MEAN_MOTION_DDOT": 0}, "tle": {"line1": "1 43246U 18029B   25347.63274422 -.00000098  00000+0  00000+0 0  9996", "line2": "2 43246  54.3622 306.4632 0004077   1.1886 358.8016  1.86228859 52422"}}, "geometry": {"type": "Point", "coordinates": [-32.54773827942601, 26.629531600187136]}}, {"type": "Feature", "properties": {"norad_id": 43286, "name": "IRNSS-1I", "group": "gnss", "lat": 5.912824687165405, "lon": -113.6616784919047, "alt_km": 35696.52680450798, "timestamp": "2025-12-15T07:02:37.861745+00:00", "meta": {"OBJECT_NAME": "IRNSS-1I", "OBJECT_ID": "2018-035A", "EPOCH": "2025-12-14T19:56:38.641056", "MEAN_MOTION": 1.00272129, "ECCENTRICITY": 0.00217173, "INCLINATION": 29.1546, "RA_OF_ASC_NODE": 77.0653, "ARG_OF_PERICENTER": 182.6132, "MEAN_ANOMALY": 178.227, "EPHEMERIS_TYPE": 0, "CLASSIFICATION_TYPE": "U", "NORAD_CAT_ID": 43286, "ELEMENT_SET_NO": 999, "REV_AT_EPOCH": 2823, "BSTAR": 0, "MEAN_MOTION_DOT": 8.4e-07, "MEAN_MOTION_DDOT": 0}, "tle": {"line1": "1 43286U 18035A   25348.83100279  .00000084  00000+0  00000+0 0  9992", "line2": "2 43286  29.1546  77.0653 0021717 182.6132 178.2270  1.00272129 28237"}}, "geometry": {"type": "Point", "coordinates": [-113.6616784919047, 5.912824687165405]}}, {"type": "Feature", "properties": {"norad_id": 43508, "name": "COSMOS 2527 (756)", "group": "gnss", "lat": 50.47890301093191, "lon": -133.49268564590403, "alt_km": 19129.172165027714, "timestamp": "2025-12-15T07:02:37.861756+00:00", "meta": {"OBJECT_NAME": "COSMOS 2527 (756)", "OBJECT_ID": "2018-053A", "EPOCH": "2025-12-13T17:26:08.291904", "MEAN_MOTION": 2.13102046, "ECCENTRICITY": 0.00086624, "INCLINATION": 65.4732, "RA_OF_ASC_NODE": 80.0985, "ARG_OF_PERICENTER": 225.2125, "MEAN_ANOMALY": 134.7297, "EPHEMERIS_TYPE": 0, "CLASSIFICATION_TYPE": "U", "NORAD_CAT_ID": 43508, "ELEMENT_SET_NO": 999, "REV_AT_EPOCH": 5832, "BSTAR": 0, "MEAN_MOTION_DOT": -4.9e-07, "MEAN_MOTION_DDOT": 0}, "tle": {"line1": "1 43508U 18053A   25347.72648486 -.00000049  00000+0  00000+0 0  9995", "line2": "2 43508  65.4732  80.0985 0008662 225.2125 134.7297  2.13102046 58320"}}, "geometry": {"type": "Point", "coordinates": [-133.49268564590403, 50.47890301093191]}}, {"type": "Feature", "properties": {"norad_id": 43539, "name": "BEIDOU-2 IGSO-7 (C16)", "group": "gnss", "lat": 35.505522821868595, "lon": -45.183301704454, "alt_km": 35853.40405516091, "timestamp": "2025-12-15T07:02:37.861770+00:00", "meta": {"OBJECT_NAME": "BEIDOU-2 IGSO-7 (C16)", "OBJECT_ID": "2018-057A", "EPOCH": "2025-12-14T21:33:09.867168", "MEAN_MOTION": 1.0025673, "ECCENTRICITY": 0.00924982, "INCLINATION": 55.1763, "RA_OF_ASC_NODE": 164.6522, "ARG_OF_PERICENTER": 235.2447, "MEAN_ANOMALY": 117.9811, "EPHEMERIS_TYPE": 0, "CLASSIFICATION_TYPE": "U", "NORAD_CAT_ID": 43539, "ELEMENT_SET_NO": 999, "REV_AT_EPOCH": 2727, "BSTAR": 0, "MEAN_MOTION_DOT": -2.4e-07, "MEAN_MOTION_DDOT": 0}, "tle": {"line1": "1 43539U 18057A   25348.89803087 -.00000024  00000+0  00000+0 0  9995", "line2": "2 43539  55.1763 164.6522 0092498 235.2447 117.9811  1.00256730 27278"}}, "geometry": {"type": "Point", "coordinates": [-45.183301704454, 35.505522821868595]}}, {"type": "Feature", "properties": {"norad_id": 43564, "name": "GSAT0221 (GALILEO 25)", "group": "gnss", "lat": -54.46206159166769, "lon": -128.83222062799436, "alt_km": 23210.307274452545, "timestamp": "2025-12-15T07:02:37.861783+00:00", "meta": {"OBJECT_NAME": "GSAT0221 (GALILEO 25)", "OBJECT_ID": "2018-060A", "EPOCH": "2025-12-13T16:53:40.160256", "MEAN_MOTION": 1.70475883, "ECCENTRICITY": 0.00067122, "INCLINATION": 57.2276, "RA_OF_ASC_NODE": 346.7914, "ARG_OF_PERICENTER": 283.6018, "MEAN_ANOMALY": 76.3423, "EPHEMERIS_TYPE": 0, "CLASSIFICATION_TYPE": "U", "NORAD_CAT_ID": 43564, "ELEMENT_SET_NO": 999, "REV_AT_EPOCH": 4600, "BSTAR": 0, "MEAN_MOTION_DOT": -8.5e-07, "MEAN_MOTION_DDOT": 0}, "tle": {"line1": "1 43564U 18060A   25347.70393704 -.00000085  00000+0  00000+0 0  9993", "line2": "2 43564  57.2276 346.7914 0006712 283.6018  76.3423  1.70475883 46009"}}, "geometry": {"type": "Point", "coordinates": [-128.83222062799436, -54.46206159166769]}}]}